     2.100          NAVIGATION                              RINEX VERSION / TYPE
fic2rin                                 04/29/2012 00:07:02 PGM / RUN BY / DATE
                                                            END OF HEADER
11 12  4 28 10  0  0.0 -.255957245827D-03 -.386535248253D-11  .000000000000D+00
     .280000000000D+02  .506250000000D+01  .635455040682D-08 -.226868441012D+01
     .122934579849D-06  .128503706073D-01  .762939453125D-05  .515367474937D+04
     .554400000000D+06  .219792127609D-06 -.877901456439D+00 -.372529029846D-07
     .887932118097D+00  .188937500000D+03  .104023019221D+01 -.868071872964D-08
     .415017287136D-09  .100000000000D+01  .168500000000D+04  .000000000000D+00
     .240000000000D+01  .000000000000D+00 -.116415321827D-07  .280000000000D+02
     .547206000000D+06  .400000000000D+01
12 12  4 28 10  0  0.0  .659720972180D-04  .216004991671D-11  .000000000000D+00
     .190000000000D+02 -.643437500000D+02  .399016620644D-08 -.256917600959D+01
    -.329688191414D-05  .412531511392D-02  .629015266895D-05  .515381300163D+04
     .554400000000D+06 -.726431608200D-07 -.267659017269D+01 -.260770320892D-07
     .979645332972D+00  .268718750000D+03  .124062665308D-01 -.788568561332D-08
     .710743891050D-10  .100000000000D+01  .168500000000D+04  .000000000000D+00
     .240000000000D+01  .000000000000D+00 -.121071934700D-07  .190000000000D+02
     .547206000000D+06  .400000000000D+01
13 12  4 28 10  0  0.0  .210728030652D-03 -.227373675443D-11  .000000000000D+00
     .650000000000D+02  .536875000000D+02  .375729936374D-08 -.849955667379D-01
     .272877514362D-05  .498518126551D-02  .914186239243D-05  .515368468857D+04
     .554400000000D+06 -.113621354103D-06  .157983054228D+01 -.894069671631D-07
     .985861962388D+00  .216531250000D+03  .197459367851D+01 -.776746640330D-08
    -.177150236161D-09  .100000000000D+01  .168500000000D+04  .000000000000D+00
     .240000000000D+01  .000000000000D+00 -.111758708954D-07  .650000000000D+02
     .547206000000D+06  .400000000000D+01
14 12  4 28 10  0  0.0  .201346818358D-03  .102318153949D-11  .000000000000D+00
     .280000000000D+02  .617812500000D+02  .403231081907D-08  .438177158352D-01
     .325217843056D-05  .622434366960D-02  .829063355923D-05  .515358608055D+04
     .554400000000D+06 -.335276126862D-07  .155331984514D+01  .894069671631D-07
     .978723403461D+00  .230906250000D+03 -.206584631557D+01 -.795568852922D-08
    -.185007706314D-09  .100000000000D+01  .168500000000D+04  .000000000000D+00
     .240000000000D+01  .000000000000D+00 -.884756445885D-08  .280000000000D+02
     .547206000000D+06  .400000000000D+01
15 12  4 28 10  0  0.0 -.913362018764D-04  .000000000000D+00  .000000000000D+00
     .720000000000D+02  .469687500000D+02  .470341020163D-08 -.447477188981D+00
     .238046050072D-05  .437670713291D-02  .782124698162D-05  .515355330086D+04
     .554400000000D+06  .115483999252D-06  .146642529224D+01 -.372529029846D-08
     .945613905643D+00  .222625000000D+03  .558411937584D-01 -.823069998455D-08
    -.228580949885D-09  .100000000000D+01  .168500000000D+04  .000000000000D+00
     .240000000000D+01  .000000000000D+00 -.102445483208D-07  .720000000000D+02
     .547206000000D+06  .400000000000D+01
16 12  4 28 10  0  0.0 -.232979189605D-03 -.136424205266D-11  .000000000000D+00
     .580000000000D+02 -.696562500000D+02  .406124059554D-08  .136340916120D+01
    -.349804759026D-05  .664519902784D-02  .586546957493D-05  .515366070557D+04
     .554400000000D+06 -.745058059692D-08 -.265846150899D+01  .119209289551D-06
     .980484613463D+00  .275968750000D+03 -.381197537836D-01 -.797890378194D-08
    -.875036448780D-10  .100000000000D+01  .168500000000D+04  .000000000000D+00
     .240000000000D+01  .000000000000D+00 -.977888703346D-08  .580000000000D+02
     .547206000000D+06  .400000000000D+01
17 12  4 28 10  0  0.0  .132671557367D-03 -.261479726760D-11  .000000000000D+00
     .820000000000D+02 -.442187500000D+02  .456376152756D-08  .384511954295D+00
    -.238604843616D-05  .732293573674D-02  .904127955437D-05  .515367213631D+04
     .554400000000D+06 -.577419996262D-07 -.161789844732D+01  .106170773506D-06
     .962456264978D+00  .209218750000D+03 -.230129056757D+01 -.803962059675D-08
     .201436962087D-09  .100000000000D+01  .168500000000D+04  .000000000000D+00
     .240000000000D+01  .000000000000D+00 -.107102096081D-07  .820000000000D+02
     .547206000000D+06  .400000000000D+01
18 12  4 28 10  0  0.0  .193125102669D-03  .181898940355D-11  .000000000000D+00
     .440000000000D+02  .771875000000D+01  .533843665303D-08  .186813736102D+01
     .214204192162D-06  .131686147070D-01  .788271427155D-05  .515368871880D+04
     .554400000000D+06 -.281259417534D-06  .450693768404D+00 -.208616256714D-06
     .930300114300D+00  .215062500000D+03 -.218407822829D+01 -.839284959587D-08
    -.332871008271D-09  .100000000000D+01  .168500000000D+04  .000000000000D+00
     .240000000000D+01  .000000000000D+00 -.107102096081D-07  .440000000000D+02
     .547206000000D+06  .400000000000D+01
19 12  4 28 10  0  0.0 -.259971246123D-03 -.375166564481D-11  .000000000000D+00
     .290000000000D+02 -.467500000000D+02  .454697511405D-08 -.457387524163D+00
    -.235810875893D-05  .818482227623D-02  .952556729317D-05  .515378184509D+04
     .554400000000D+06  .156462192535D-06 -.156476024780D+01  .149011611938D-07
     .959828438399D+00  .192968750000D+03  .151071829845D+00 -.805604985253D-08
     .259296515026D-09  .100000000000D+01  .168500000000D+04  .000000000000D+00
     .240000000000D+01  .000000000000D+00 -.144354999065D-07  .290000000000D+02
     .547206000000D+06  .400000000000D+01
20 12  4 28 10  0  0.0  .632512383163D-04  .113686837722D-12  .000000000000D+00
     .730000000000D+02  .108750000000D+02  .538272421207D-08  .222295709026D+01
     .398606061935D-06  .502783129923D-02  .707805156708D-05  .515371030235D+04
     .554400000000D+06  .242143869400D-07  .396970533313D+00 -.894069671631D-07
     .930754411806D+00  .223406250000D+03  .129384867781D+01 -.835784813792D-08
    -.328585115460D-09  .100000000000D+01  .168500000000D+04  .000000000000D+00
     .240000000000D+01  .000000000000D+00 -.791624188423D-08  .730000000000D+02
     .547206000000D+06  .400000000000D+01
21 12  4 28 10  0  0.0 -.220189802349D-03 -.250111042988D-11  .000000000000D+00
     .670000000000D+02  .110937500000D+02  .538272421207D-08  .292796583810D+01
     .394880771637D-06  .190417561680D-01  .734999775887D-05  .515361952209D+04
     .554400000000D+06 -.745058059692D-08 -.600070181526D+00 -.262632966042D-06
     .931444512688D+00  .222312500000D+03 -.226039223642D+01 -.811176645906D-08
     .141791620476D-09  .100000000000D+01  .168500000000D+04  .000000000000D+00
     .240000000000D+01  .000000000000D+00 -.111758708954D-07  .670000000000D+02
     .547206000000D+06  .400000000000D+01
22 12  4 28 10  0  0.0  .143590848893D-03  .113686837722D-12  .000000000000D+00
     .101000000000D+03  .146562500000D+02  .554487382339D-08  .104234346515D+01
     .828877091408D-06  .598454300780D-02  .771880149841D-05  .515367932320D+04
     .554400000000D+06 -.931322574615D-07  .454132831335D+00  .782310962677D-07
     .928016159781D+00  .216875000000D+03 -.201526316977D+01 -.858571477234D-08
    -.352871841386D-09  .100000000000D+01  .168500000000D+04  .000000000000D+00
     .340000000000D+01  .000000000000D+00 -.167638063431D-07  .101000000000D+03
     .547206000000D+06  .400000000000D+01
23 12  4 28 10  0  0.0  .210520345718D-03 -.363797880709D-11  .000000000000D+00
     .840000000000D+02  .526875000000D+02  .434446667876D-08 -.845906588090D+00
     .259838998318D-05  .777665700298D-02  .883452594280D-05  .515364420891D+04
     .554400000000D+06  .141561031342D-06  .150172760478D+01 -.149011611938D-06
     .960323333344D+00  .208437500000D+03 -.302198945852D+01 -.800283335013D-08
    -.220366321999D-09  .100000000000D+01  .168500000000D+04  .000000000000D+00
     .240000000000D+01  .000000000000D+00 -.200234353542D-07  .840000000000D+02
     .547206000000D+06  .400000000000D+01
24 12  4 28 10  0  0.0 -.358279794455D-05 -.278532752418D-10  .000000000000D+00
     .101000000000D+03 -.438750000000D+02  .490091842864D-08  .287274811370D+01
    -.243075191975D-05  .899096694775D-02  .917539000511D-05  .515376493454D+04
     .554400000000D+06  .124797224998D-06 -.173289082305D+01  .139698386192D-06
     .939877070933D+00  .186687500000D+03 -.100253286041D+01 -.808926552181D-08
     .208937274505D-09  .100000000000D+01  .168500000000D+04  .000000000000D+00
     .240000000000D+01  .630000000000D+02 -.232830643654D-08  .101000000000D+03
     .547206000000D+06  .400000000000D+01
25 12  4 28 10  0  0.0  .334177166224D-04  .341060513165D-12  .000000000000D+00
     .220000000000D+02 -.640625000000D+02  .429839333105D-08  .246579187859D+01
    -.322796404362D-05  .158108444884D-02  .609643757343D-05  .515372637558D+04
     .554400000000D+06 -.372529029846D-07 -.271030957422D+01 -.335276126862D-07
     .968497524164D+00  .265062500000D+03  .629540356094D+00 -.808426531353D-08
     .667884962947D-10  .100000000000D+01  .168500000000D+04  .000000000000D+00
     .240000000000D+01  .000000000000D+00  .558793544769D-08  .220000000000D+02
     .547206000000D+06  .400000000000D+01
26 12  4 28 10  0  0.0 -.364841893315D-03 -.524096321897D-10  .000000000000D+00
     .920000000000D+02  .567500000000D+02  .395659337942D-08 -.993832766632D+00
     .322423875332D-05  .209626001306D-01  .793859362602D-05  .515366489601D+04
     .554400000000D+06  .558793544769D-08  .157388153179D+01  .489875674248D-06
     .983407893903D+00  .240187500000D+03  .119026702360D+01 -.801997692137D-08
    -.187864968187D-09  .100000000000D+01  .168500000000D+04  .000000000000D+00
     .240000000000D+01  .000000000000D+00 -.605359673500D-08  .920000000000D+02
     .547206000000D+06  .400000000000D+01
